[{"OBJECT_NAME":"STARLINK-32928","OBJECT_ID":"2025-075S","EPOCH":"2026-02-27T02:53:19.929984","MEAN_MOTION":15.27611314,"ECCENTRICITY":0.00013038,"INCLINATION":43.0002,"RA_OF_ASC_NODE":330.0938,"ARG_OF_PERICENTER":258.6846,"MEAN_ANOMALY":101.3859,"EPHEMERIS_TYPE":0,"CLASSIFICATION_TYPE":"U","NORAD_CAT_ID":63564,"ELEMENT_SET_NO":999,"REV_AT_EPOCH":5032,"BSTAR":0.001316032,"MEAN_MOTION_DOT":0.00036165,"MEAN_MOTION_DDOT":0},{"OBJECT_NAME":"STARLINK-32687","OBJECT_ID":"2025-075T","EPOCH":"2026-02-27T03:30:19.558944","MEAN_MOTION":15.27601346,"ECCENTRICITY":0.00031318,"INCLINATION":43.0051,"RA_OF_ASC_NODE":330.2579,"ARG_OF_PERICENTER":245.0791,"MEAN_ANOMALY":114.9736,"EPHEMERIS_TYPE":0,"CLASSIFICATION_TYPE":"U","NORAD_CAT_ID":63565,"ELEMENT_SET_NO":999,"REV_AT_EPOCH":5032,"BSTAR":0.00091053736,"MEAN_MOTION_DOT":0.00024897,"MEAN_MOTION_DDOT":0},{"OBJECT_NAME":"STARLINK-32950","OBJECT_ID":"2025-075U","EPOCH":"2026-02-27T04:20:03.877152","MEAN_MOTION":15.27595079,"ECCENTRICITY":0.00020599,"INCLINATION":43.0041,"RA_OF_ASC_NODE":329.6208,"ARG_OF_PERICENTER":257.909,"MEAN_ANOMALY":102.1531,"EPHEMERIS_TYPE":0,"CLASSIFICATION_TYPE":"U","NORAD_CAT_ID":63566,"ELEMENT_SET_NO":999,"REV_AT_EPOCH":5032,"BSTAR":0.00045415595,"MEAN_MOTION_DOT":0.00012262,"MEAN_MOTION_DDOT":0},{"OBJECT_NAME":"STARLINK-32954","OBJECT_ID":"2025-075V","EPOCH":"2026-02-27T03:04:25.535712","MEAN_MOTION":15.27593503,"ECCENTRICITY":0.00024204,"INCLINATION":43.0071,"RA_OF_ASC_NODE":330.1205,"ARG_OF_PERICENTER":262.9184,"MEAN_ANOMALY":97.1393,"EPHEMERIS_TYPE":0,"CLASSIFICATION_TYPE":"U","NORAD_CAT_ID":63567,"ELEMENT_SET_NO":999,"REV_AT_EPOCH":5031,"BSTAR":0.00076619607,"MEAN_MOTION_DOT":0.00020891,"MEAN_MOTION_DDOT":0},{"OBJECT_NAME":"STARLINK-32940","OBJECT_ID":"2025-075W","EPOCH":"2026-02-27T03:11:49.995456","MEAN_MOTION":15.27596674,"ECCENTRICITY":0.00028488,"INCLINATION":43.0095,"RA_OF_ASC_NODE":330.1606,"ARG_OF_PERICENTER":273.9102,"MEAN_ANOMALY":86.1424,"EPHEMERIS_TYPE":0,"CLASSIFICATION_TYPE":"U","NORAD_CAT_ID":63568,"ELEMENT_SET_NO":999,"REV_AT_EPOCH":5031,"BSTAR":0.00094923663,"MEAN_MOTION_DOT":0.00025965,"MEAN_MOTION_DDOT":0},{"OBJECT_NAME":"STARLINK-32959","OBJECT_ID":"2025-076A","EPOCH":"2026-02-27T06:47:25.211616","MEAN_MOTION":15.2758496,"ECCENTRICITY":0.00022163,"INCLINATION":43.0056,"RA_OF_ASC_NODE":24.4511,"ARG_OF_PERICENTER":292.783,"MEAN_ANOMALY":67.2788,"EPHEMERIS_TYPE":0,"CLASSIFICATION_TYPE":"U","NORAD_CAT_ID":63569,"ELEMENT_SET_NO":999,"REV_AT_EPOCH":5019,"BSTAR":0.00096205614,"MEAN_MOTION_DOT":0.00026311,"MEAN_MOTION_DDOT":0},{"OBJECT_NAME":"STARLINK-32956","OBJECT_ID":"2025-076B","EPOCH":"2026-02-27T05:24:09.246528","MEAN_MOTION":15.27624853,"ECCENTRICITY":0.00012783,"INCLINATION":43.0044,"RA_OF_ASC_NODE":24.0094,"ARG_OF_PERICENTER":269.9685,"MEAN_ANOMALY":90.102,"EPHEMERIS_TYPE":0,"CLASSIFICATION_TYPE":"U","NORAD_CAT_ID":63570,"ELEMENT_SET_NO":999,"REV_AT_EPOCH":5018,"BSTAR":0.0017319699,"MEAN_MOTION_DOT":0.00047772,"MEAN_MOTION_DDOT":0},{"OBJECT_NAME":"STARLINK-33722","OBJECT_ID":"2025-076C","EPOCH":"2026-02-27T05:45:10.975968","MEAN_MOTION":15.27626247,"ECCENTRICITY":0.00017522,"INCLINATION":43.0003,"RA_OF_ASC_NODE":20.591,"ARG_OF_PERICENTER":253.6128,"MEAN_ANOMALY":106.4532,"EPHEMERIS_TYPE":0,"CLASSIFICATION_TYPE":"U","NORAD_CAT_ID":63571,"ELEMENT_SET_NO":999,"REV_AT_EPOCH":5022,"BSTAR":0.0013150013,"MEAN_MOTION_DOT":0.00036153,"MEAN_MOTION_DDOT":0},{"OBJECT_NAME":"STARLINK-33739","OBJECT_ID":"2025-076D","EPOCH":"2026-02-27T06:35:08.541024","MEAN_MOTION":15.27593371,"ECCENTRICITY":0.00030664,"INCLINATION":43.006,"RA_OF_ASC_NODE":20.8547,"ARG_OF_PERICENTER":261.3683,"MEAN_ANOMALY":98.6822,"EPHEMERIS_TYPE":0,"CLASSIFICATION_TYPE":"U","NORAD_CAT_ID":63572,"ELEMENT_SET_NO":999,"REV_AT_EPOCH":5023,"BSTAR":0.0013334073,"MEAN_MOTION_DOT":0.0003663,"MEAN_MOTION_DDOT":0},{"OBJECT_NAME":"STARLINK-33683","OBJECT_ID":"2025-076E","EPOCH":"2026-02-27T06:33:17.466048","MEAN_MOTION":15.27599898,"ECCENTRICITY":0.00021842,"INCLINATION":43.0056,"RA_OF_ASC_NODE":20.8444,"ARG_OF_PERICENTER":256.4058,"MEAN_ANOMALY":103.655,"EPHEMERIS_TYPE":0,"CLASSIFICATION_TYPE":"U","NORAD_CAT_ID":63573,"ELEMENT_SET_NO":999,"REV_AT_EPOCH":5023,"BSTAR":0.0012074287,"MEAN_MOTION_DOT":0.00033134,"MEAN_MOTION_DDOT":0},{"OBJECT_NAME":"STARLINK-33732","OBJECT_ID":"2025-076G","EPOCH":"2026-02-27T06:14:47.881824","MEAN_MOTION":15.2757679,"ECCENTRICITY":0.00014703,"INCLINATION":43.0031,"RA_OF_ASC_NODE":20.7495,"ARG_OF_PERICENTER":260.0259,"MEAN_ANOMALY":100.0427,"EPHEMERIS_TYPE":0,"CLASSIFICATION_TYPE":"U","NORAD_CAT_ID":63575,"ELEMENT_SET_NO":999,"REV_AT_EPOCH":5023,"BSTAR":0.00050703039,"MEAN_MOTION_DOT":0.00013715,"MEAN_MOTION_DDOT":0},{"OBJECT_NAME":"STARLINK-33800","OBJECT_ID":"2025-076H","EPOCH":"2026-02-27T05:37:47.160768","MEAN_MOTION":15.27610162,"ECCENTRICITY":0.00014951,"INCLINATION":43.001,"RA_OF_ASC_NODE":20.5488,"ARG_OF_PERICENTER":270.1063,"MEAN_ANOMALY":89.9617,"EPHEMERIS_TYPE":0,"CLASSIFICATION_TYPE":"U","NORAD_CAT_ID":63576,"ELEMENT_SET_NO":999,"REV_AT_EPOCH":5023,"BSTAR":0.0010176652,"MEAN_MOTION_DOT":0.00027874,"MEAN_MOTION_DDOT":0},{"OBJECT_NAME":"STARLINK-33632","OBJECT_ID":"2025-076J","EPOCH":"2026-02-27T06:29:35.208960","MEAN_MOTION":15.27631298,"ECCENTRICITY":0.0002397,"INCLINATION":43.005,"RA_OF_ASC_NODE":20.8219,"ARG_OF_PERICENTER":257.054,"MEAN_ANOMALY":103.0044,"EPHEMERIS_TYPE":0,"CLASSIFICATION_TYPE":"U","NORAD_CAT_ID":63577,"ELEMENT_SET_NO":999,"REV_AT_EPOCH":5023,"BSTAR":0.0017277099,"MEAN_MOTION_DOT":0.00047665,"MEAN_MOTION_DDOT":0},{"OBJECT_NAME":"STARLINK-33719","OBJECT_ID":"2025-076K","EPOCH":"2026-02-27T05:50:44.370240","MEAN_MOTION":15.27588996,"ECCENTRICITY":0.0001323,"INCLINATION":42.9995,"RA_OF_ASC_NODE":20.6217,"ARG_OF_PERICENTER":276.3406,"MEAN_ANOMALY":83.7295,"EPHEMERIS_TYPE":0,"CLASSIFICATION_TYPE":"U","NORAD_CAT_ID":63578,"ELEMENT_SET_NO":999,"REV_AT_EPOCH":5023,"BSTAR":0.00077000266,"MEAN_MOTION_DOT":0.00020993,"MEAN_MOTION_DDOT":0},{"OBJECT_NAME":"STARLINK-33755","OBJECT_ID":"2025-076L","EPOCH":"2026-02-27T05:52:34.369536","MEAN_MOTION":15.27621339,"ECCENTRICITY":0.00028362,"INCLINATION":42.9921,"RA_OF_ASC_NODE":20.5567,"ARG_OF_PERICENTER":30.9723,"MEAN_ANOMALY":329.1295,"EPHEMERIS_TYPE":0,"CLASSIFICATION_TYPE":"U","NORAD_CAT_ID":63579,"ELEMENT_SET_NO":999,"REV_AT_EPOCH":5023,"BSTAR":0.0009421599,"MEAN_MOTION_DOT":0.00025789,"MEAN_MOTION_DDOT":0},{"OBJECT_NAME":"STARLINK-33752","OBJECT_ID":"2025-076M","EPOCH":"2026-02-27T06:11:05.508960","MEAN_MOTION":15.27615879,"ECCENTRICITY":0.00013911,"INCLINATION":43.0031,"RA_OF_ASC_NODE":20.727,"ARG_OF_PERICENTER":268.1718,"MEAN_ANOMALY":91.8975,"EPHEMERIS_TYPE":0,"CLASSIFICATION_TYPE":"U","NORAD_CAT_ID":63580,"ELEMENT_SET_NO":999,"REV_AT_EPOCH":5023,"BSTAR":0.0013679883,"MEAN_MOTION_DOT":0.00037615,"MEAN_MOTION_DDOT":0}]
