STARLINK-32928          
1 63564U 25075S   26058.12036956  .00036165  00000+0  13160-2 0  9999
2 63564  43.0002 330.0938 0001303 258.6846 101.3859 15.27611314 50325
STARLINK-32687          
1 63565U 25075T   26058.14605971  .00024897  00000+0  91054-3 0  9999
2 63565  43.0051 330.2579 0003131 245.0791 114.9736 15.27601346 50321
STARLINK-32950          
1 63566U 25075U   26058.18060043  .00012262  00000+0  45416-3 0  9993
2 63566  43.0041 329.6208 0002059 257.9090 102.1531 15.27595079 50321
STARLINK-32954          
1 63567U 25075V   26058.12807333  .00020891  00000+0  76620-3 0  9997
2 63567  43.0071 330.1205 0002420 262.9184  97.1393 15.27593503 50319
STARLINK-32940          
1 63568U 25075W   26058.13321754  .00025965  00000+0  94924-3 0  9991
2 63568  43.0095 330.1606 0002848 273.9102  86.1424 15.27596674 50312
STARLINK-32959          
1 63569U 25076A   26058.28293069  .00026311  00000+0  96206-3 0  9997
2 63569  43.0056  24.4511 0002216 292.7830  67.2788 15.27584960 50198
STARLINK-32956          
1 63570U 25076B   26058.22510702  .00047772  00000+0  17320-2 0  9992
2 63570  43.0044  24.0094 0001278 269.9685  90.1020 15.27624853 50189
STARLINK-33722          
1 63571U 25076C   26058.23971037  .00036153  00000+0  13150-2 0  9994
2 63571  43.0003  20.5910 0001752 253.6128 106.4532 15.27626247 50225
STARLINK-33739          
1 63572U 25076D   26058.27440441  .00036630  00000+0  13334-2 0  9993
2 63572  43.0060  20.8547 0003066 261.3683  98.6822 15.27593371 50236
STARLINK-33683          
1 63573U 25076E   26058.27311882  .00033134  00000+0  12074-2 0  9996
2 63573  43.0056  20.8444 0002184 256.4058 103.6550 15.27599898 50234
STARLINK-33732          
1 63575U 25076G   26058.26027641  .00013715  00000+0  50703-3 0  9999
2 63575  43.0031  20.7495 0001470 260.0259 100.0427 15.27576790 50235
STARLINK-33800          
1 63576U 25076H   26058.23457362  .00027874  00000+0  10177-2 0  9995
2 63576  43.0010  20.5488 0001495 270.1063  89.9617 15.27610162 50233
STARLINK-33632          
1 63577U 25076J   26058.27054640  .00047665  00000+0  17277-2 0  9990
2 63577  43.0050  20.8219 0002397 257.0540 103.0044 15.27631298 50234
STARLINK-33719          
1 63578U 25076K   26058.24356910  .00020993  00000+0  77000-3 0  9999
2 63578  42.9995  20.6217 0001323 276.3406  83.7295 15.27588996 50238
STARLINK-33755          
1 63579U 25076L   26058.24484224  .00025789  00000+0  94216-3 0  9996
2 63579  42.9921  20.5567 0002836  30.9723 329.1295 15.27621339 50237
STARLINK-33752          
1 63580U 25076M   26058.25770265  .00037615  00000+0  13680-2 0  9998
2 63580  43.0031  20.7270 0001391 268.1718  91.8975 15.27615879 50230
